GLOBALSTAR M045         
1 25676U 99019A   25306.16112381 -.00000053  00000+0  35568-3 0  9991
2 25676  51.9967 272.0122 0000556  71.9404 301.3065 12.27067455210338
GLOBALSTAR M019         
1 25677U 99019B   25306.52405323 -.00000012  00000+0  80797-3 0  9992
2 25677  51.9894  51.0758 0001066 205.1548 236.9597 12.13878427201949
GLOBALSTAR M044         
1 25678U 99019C   25306.50149111 -.00000114  00000+0 -42156-3 0  9992
2 25678  51.9997  19.8035 0005738 305.9419 155.5818 11.90259508187795
GLOBALSTAR M042         
1 25679U 99019D   25306.37244461 -.00000067  00000+0  23429-3 0  9990
2 25679  52.0043  20.8502 0003010 214.4119 223.3023 12.22090099202157
GLOBALSTAR M025         
1 25770U 99031A   25306.44132022 -.00000061  00000+0  19916-3 0  9993
2 25770  51.9792 198.9957 0002908  29.5769 141.2236 11.22557755497235
GLOBALSTAR M049         
1 25771U 99031B   25306.13729720 -.00000103  00000+0 -13235-2 0  9992
2 25771  51.9870 241.3959 0002356 257.5035 102.5498 11.12121248132772
GLOBALSTAR M047         
1 25772U 99031C   25306.08574282 -.00000068  00000+0  56900-4 0  9995
2 25772  51.9820 225.3068 0016440 136.6258 223.5845 11.31930762486721
GLOBALSTAR M052         
1 25773U 99031D   25306.44723339 -.00000046  00000+0  65566-3 0  9998
2 25773  51.9897 347.4236 0002573  45.6384 327.4834 11.15061457493931
